{
  "type": "FeatureCollection",
  "features": [
    {
      "type": "Feature",
      "properties": {
        "norad_id": 67073,
        "name": "RAISE-4",
        "group": "last-30-days",
        "lat": -75.0424259898614,
        "lon": -67.82238992574973,
        "alt_km": 545.7804014969342,
        "timestamp": "2025-12-20T07:33:49.517357+00:00",
        "meta_object_name": "RAISE-4",
        "meta_object_id": "2025-297B",
        "meta_epoch": "2025-12-19T06:31:31.025568",
        "meta_mean_motion": 15.07177511,
        "meta_eccentricity": 0.00114177,
        "meta_inclination": 97.4853,
        "meta_ra_of_asc_node": 140.6452,
        "meta_arg_of_pericenter": 296.9674,
        "meta_mean_anomaly": 63.0387,
        "meta_ephemeris_type": 0,
        "meta_classification_type": "U",
        "meta_norad_cat_id": 67073,
        "meta_element_set_no": 999,
        "meta_rev_at_epoch": 77,
        "meta_bstar": 0.00022353741,
        "meta_mean_motion_dot": 3.306e-05,
        "meta_mean_motion_ddot": 0,
        "tle_line1": "1 67073U 25297B   25353.27188687  .00003306  00000+0  22354-3 0  9993",
        "tle_line2": "2 67073  97.4853 140.6452 0011417 296.9674  63.0387 15.07177511   776"
      },
      "geometry": {
        "type": "Point",
        "coordinates": [
          -67.82238992574973,
          -75.0424259898614
        ]
      }
    },
    {
      "type": "Feature",
      "properties": {
        "norad_id": 67074,
        "name": "ELECTRON KICK STAGE R/B",
        "group": "last-30-days",
        "lat": -54.56888936173502,
        "lon": -48.51816284355477,
        "alt_km": 269.7316840814783,
        "timestamp": "2025-12-20T07:33:49.517370+00:00",
        "meta_object_name": "ELECTRON KICK STAGE R/B",
        "meta_object_id": "2025-297C",
        "meta_epoch": "2025-12-19T22:49:55.023456",
        "meta_mean_motion": 15.56469456,
        "meta_eccentricity": 0.02006187,
        "meta_inclination": 97.4819,
        "meta_ra_of_asc_node": 141.7451,
        "meta_arg_of_pericenter": 243.2876,
        "meta_mean_anomaly": 114.7721,
        "meta_ephemeris_type": 0,
        "meta_classification_type": "U",
        "meta_norad_cat_id": 67074,
        "meta_element_set_no": 999,
        "meta_rev_at_epoch": 90,
        "meta_bstar": 0.0013711293,
        "meta_mean_motion_dot": 0.00250716,
        "meta_mean_motion_ddot": 1.8567125e-05,
        "tle_line1": "1 67074U 25297C   25353.95133129  .00250716  18567-4  13711-2 0  9997",
        "tle_line2": "2 67074  97.4819 141.7451 0200618 243.2876 114.7721 15.56469456   909"
      },
      "geometry": {
        "type": "Point",
        "coordinates": [
          -48.51816284355477,
          -54.56888936173502
        ]
      }
    },
    {
      "type": "Feature",
      "properties": {
        "norad_id": 67131,
        "name": "ZIYUAN 3-04 (ZY 3-04)",
        "group": "last-30-days",
        "lat": -18.13361707095038,
        "lon": 70.85572643470573,
        "alt_km": 508.8209232386034,
        "timestamp": "2025-12-20T07:33:49.517384+00:00",
        "meta_object_name": "ZIYUAN 3-04 (ZY 3-04)",
        "meta_object_id": "2025-300A",
        "meta_epoch": "2025-12-19T14:16:40.067616",
        "meta_mean_motion": 15.21161685,
        "meta_eccentricity": 0.0002222,
        "meta_inclination": 97.4887,
        "meta_ra_of_asc_node": 67.6705,
        "meta_arg_of_pericenter": 189.6459,
        "meta_mean_anomaly": 170.4734,
        "meta_ephemeris_type": 0,
        "meta_classification_type": "U",
        "meta_norad_cat_id": 67131,
        "meta_element_set_no": 999,
        "meta_rev_at_epoch": 53,
        "meta_bstar": 6.1152e-05,
        "meta_mean_motion_dot": 1.292e-05,
        "meta_mean_motion_ddot": 0,
        "tle_line1": "1 67131U 25300A   25353.59490819  .00001292  00000+0  61152-4 0  9993",
        "tle_line2": "2 67131  97.4887  67.6705 0002222 189.6459 170.4734 15.21161685   534"
      },
      "geometry": {
        "type": "Point",
        "coordinates": [
          70.85572643470573,
          -18.13361707095038
        ]
      }
    },
    {
      "type": "Feature",
      "properties": {
        "norad_id": 67132,
        "name": "CZ-4B R/B",
        "group": "last-30-days",
        "lat": -42.618795372091405,
        "lon": -118.29467589719911,
        "alt_km": 472.3988296949374,
        "timestamp": "2025-12-20T07:33:49.517394+00:00",
        "meta_object_name": "CZ-4B R/B",
        "meta_object_id": "2025-300B",
        "meta_epoch": "2025-12-18T16:13:04.609056",
        "meta_mean_motion": 15.63831828,
        "meta_eccentricity": 0.01741973,
        "meta_inclination": 97.5563,
        "meta_ra_of_asc_node": 66.966,
        "meta_arg_of_pericenter": 9.3582,
        "meta_mean_anomaly": 351.0851,
        "meta_ephemeris_type": 0,
        "meta_classification_type": "U",
        "meta_norad_cat_id": 67132,
        "meta_element_set_no": 999,
        "meta_rev_at_epoch": 40,
        "meta_bstar": 0.00019566238,
        "meta_mean_motion_dot": 0.00040543,
        "meta_mean_motion_ddot": 2.652968e-06,
        "tle_line1": "1 67132U 25300B   25352.67574779  .00040543  26530-5  19566-3 0  9995",
        "tle_line2": "2 67132  97.5563  66.9660 0174197   9.3582 351.0851 15.63831828   407"
      },
      "geometry": {
        "type": "Point",
        "coordinates": [
          -118.29467589719911,
          -42.618795372091405
        ]
      }
    },
    {
      "type": "Feature",
      "properties": {
        "norad_id": 67160,
        "name": "GALILEO A",
        "group": "last-30-days",
        "lat": -54.258984411561634,
        "lon": 17.5439393001554,
        "alt_km": 22928.989184905917,
        "timestamp": "2025-12-20T07:33:49.517406+00:00",
        "meta_object_name": "GALILEO A",
        "meta_object_id": "2025-302A",
        "meta_epoch": "2025-12-18T03:30:19.486368",
        "meta_mean_motion": 1.72906186,
        "meta_eccentricity": 0.00084238,
        "meta_inclination": 54.2406,
        "meta_ra_of_asc_node": 107.2544,
        "meta_arg_of_pericenter": 237.6458,
        "meta_mean_anomaly": 122.2317,
        "meta_ephemeris_type": 0,
        "meta_classification_type": "U",
        "meta_norad_cat_id": 67160,
        "meta_element_set_no": 999,
        "meta_rev_at_epoch": 2,
        "meta_bstar": 0,
        "meta_mean_motion_dot": -7e-08,
        "meta_mean_motion_ddot": 0,
        "tle_line1": "1 67160U 25302A   25352.14605887 -.00000007  00000+0  00000+0 0  9994",
        "tle_line2": "2 67160  54.2406 107.2544 0008423 237.6458 122.2317  1.72906186    28"
      },
      "geometry": {
        "type": "Point",
        "coordinates": [
          17.5439393001554,
          -54.258984411561634
        ]
      }
    },
    {
      "type": "Feature",
      "properties": {
        "norad_id": 67161,
        "name": "GALILEO B",
        "group": "last-30-days",
        "lat": -54.235835442317324,
        "lon": 18.67902802893626,
        "alt_km": 22929.401140548573,
        "timestamp": "2025-12-20T07:33:49.517417+00:00",
        "meta_object_name": "GALILEO B",
        "meta_object_id": "2025-302B",
        "meta_epoch": "2025-12-19T07:14:53.290752",
        "meta_mean_motion": 1.72972192,
        "meta_eccentricity": 0.00045866,
        "meta_inclination": 54.2272,
        "meta_ra_of_asc_node": 107.1916,
        "meta_arg_of_pericenter": 255.0301,
        "meta_mean_anomaly": 104.8802,
        "meta_ephemeris_type": 0,
        "meta_classification_type": "U",
        "meta_norad_cat_id": 67161,
        "meta_element_set_no": 999,
        "meta_rev_at_epoch": 5,
        "meta_bstar": 0,
        "meta_mean_motion_dot": -5e-08,
        "meta_mean_motion_ddot": 0,
        "tle_line1": "1 67161U 25302B   25353.30200568 -.00000005  00000+0  00000+0 0  9999",
        "tle_line2": "2 67161  54.2272 107.1916 0004586 255.0301 104.8802  1.72972192    57"
      },
      "geometry": {
        "type": "Point",
        "coordinates": [
          18.67902802893626,
          -54.235835442317324
        ]
      }
    },
    {
      "type": "Feature",
      "properties": {
        "norad_id": 67162,
        "name": "ARIANE 6 R/B",
        "group": "last-30-days",
        "lat": -54.18417432745213,
        "lon": 21.51596960141017,
        "alt_km": 22924.732582330627,
        "timestamp": "2025-12-20T07:33:49.517428+00:00",
        "meta_object_name": "ARIANE 6 R/B",
        "meta_object_id": "2025-302C",
        "meta_epoch": "2025-12-19T07:12:31.071168",
        "meta_mean_motion": 1.73130298,
        "meta_eccentricity": 2.559e-05,
        "meta_inclination": 54.2437,
        "meta_ra_of_asc_node": 107.222,
        "meta_arg_of_pericenter": 160.7324,
        "meta_mean_anomaly": 199.2296,
        "meta_ephemeris_type": 0,
        "meta_classification_type": "U",
        "meta_norad_cat_id": 67162,
        "meta_element_set_no": 999,
        "meta_rev_at_epoch": 8,
        "meta_bstar": 0,
        "meta_mean_motion_dot": -5e-08,
        "meta_mean_motion_ddot": 0,
        "tle_line1": "1 67162U 25302C   25353.30035962 -.00000005  00000+0  00000+0 0  9994",
        "tle_line2": "2 67162  54.2437 107.2220 0000255 160.7324 199.2296  1.73130298    88"
      },
      "geometry": {
        "type": "Point",
        "coordinates": [
          21.51596960141017,
          -54.18417432745213
        ]
      }
    }
  ]
}